1 37673U 11024A   14010.67528560  .00001069  00000-0  17681-3 0  9991
2 37673 098.0119 020.1379 0001155 091.1588 048.0275 14.72345542139053
